[{"OBJECT_NAME":"OBJECT AD","OBJECT_ID":"2023-085AD","EPOCH":"2026-03-09T21:41:29.115744","MEAN_MOTION":15.31779154,"ECCENTRICITY":0.00101154,"INCLINATION":97.4841,"RA_OF_ASC_NODE":180.2223,"ARG_OF_PERICENTER":77.5993,"MEAN_ANOMALY":282.638,"EPHEMERIS_TYPE":0,"CLASSIFICATION_TYPE":"U","NORAD_CAT_ID":57031,"ELEMENT_SET_NO":999,"REV_AT_EPOCH":15156,"BSTAR":0.00068352515,"MEAN_MOTION_DOT":0.00020961,"MEAN_MOTION_DDOT":0},{"OBJECT_NAME":"STARLINK-31793","OBJECT_ID":"2024-112R","EPOCH":"2026-03-09T10:29:55.180608","MEAN_MOTION":15.30197483,"ECCENTRICITY":0.00012851,"INCLINATION":53.1612,"RA_OF_ASC_NODE":79.4743,"ARG_OF_PERICENTER":88.3571,"MEAN_ANOMALY":271.7577,"EPHEMERIS_TYPE":0,"CLASSIFICATION_TYPE":"U","NORAD_CAT_ID":60053,"ELEMENT_SET_NO":999,"REV_AT_EPOCH":9855,"BSTAR":3.8984444e-5,"MEAN_MOTION_DOT":7.95e-6,"MEAN_MOTION_DDOT":0}]
